start=new Date('2022-04-29T00:00:00.000Z').valueOf();
sats=[{"LAUNCH_DATE":"2022-02-21","MEAN_ELEMENT_THEORY":"SGP4","TLE_LINE2":"2 51749  53.2175 175.8349 0001672  38.4953 304.0338 15.37512507  3691","OBJECT_NAME":"STARLINK-3451","OBJECT_ID":"2022-016AM","APOAPSIS":"454.612","MEAN_MOTION":"15.37512507","EPOCH":"2022-04-28T14:00:01.000224","SITE":"AFETR","DECAY_DATE":null,"RCS_SIZE":"MEDIUM","GP_ID":"202220691","ECCENTRICITY":"0.00016720","ELEMENT_SET_NO":"999","ARG_OF_PERICENTER":"38.4953","MEAN_MOTION_DDOT":"0.0000000000000","BSTAR":"-0.02077800000000","CLASSIFICATION_TYPE":"U","CENTER_NAME":"EARTH","REF_FRAME":"TEME","NORAD_CAT_ID":"51749","MEAN_MOTION_DOT":"-0.00716926","PERIOD":"93.658","SEMIMAJOR_AXIS":"6831.605","INCLINATION":"53.2175","REV_AT_EPOCH":"369","RA_OF_ASC_NODE":"175.8349","OBJECT_TYPE":"PAYLOAD","MEAN_ANOMALY":"304.0338","COUNTRY_CODE":"US","FILE":"3420061","PERIAPSIS":"452.328","TIME_SYSTEM":"UTC","TLE_LINE1":"1 51749U 22016AM  22118.58334491 -.00716926  00000-0 -20778-1 0  9996","EPHEMERIS_TYPE":"0"},{"EPHEMERIS_TYPE":"0","TLE_LINE1":"1 51750U 22016AN  22118.58334491 -.00714696  00000-0 -69370-2 0  9992","FILE":"3420061","TIME_SYSTEM":"UTC","PERIAPSIS":"364.382","OBJECT_TYPE":"PAYLOAD","MEAN_ANOMALY":"307.7388","COUNTRY_CODE":"US","RA_OF_ASC_NODE":"173.0355","REV_AT_EPOCH":"371","INCLINATION":"53.2174","NORAD_CAT_ID":"51750","MEAN_MOTION_DOT":"-0.00714696","PERIOD":"91.846","SEMIMAJOR_AXIS":"6743.214","MEAN_MOTION_DDOT":"0.0000000000000","BSTAR":"-0.00693700000000","CLASSIFICATION_TYPE":"U","REF_FRAME":"TEME","CENTER_NAME":"EARTH","GP_ID":"202220199","ELEMENT_SET_NO":"999","ECCENTRICITY":"0.00010350","ARG_OF_PERICENTER":"64.9754","EPOCH":"2022-04-28T14:00:01.000224","SITE":"AFETR","DECAY_DATE":null,"RCS_SIZE":"LARGE","APOAPSIS":"365.777","OBJECT_ID":"2022-016AN","MEAN_MOTION":"15.67842026","TLE_LINE2":"2 51750  53.2174 173.0355 0001035  64.9754 307.7388 15.67842026  3718","OBJECT_NAME":"STARLINK-3505","LAUNCH_DATE":"2022-02-21","MEAN_ELEMENT_THEORY":"SGP4"},{"MEAN_MOTION_DOT":"-0.00714878","NORAD_CAT_ID":"51751","SEMIMAJOR_AXIS":"6743.252","PERIOD":"91.847","REV_AT_EPOCH":"371","RA_OF_ASC_NODE":"173.0286","INCLINATION":"53.2174","ELEMENT_SET_NO":"999","ECCENTRICITY":"0.00010990","GP_ID":"202220611","ARG_OF_PERICENTER":"59.7257","BSTAR":"-0.00694250000000","MEAN_MOTION_DDOT":"0.0000000000000","REF_FRAME":"TEME","CENTER_NAME":"EARTH","CLASSIFICATION_TYPE":"U","APOAPSIS":"365.858","OBJECT_ID":"2022-016AP","MEAN_MOTION":"15.67829005","DECAY_DATE":null,"SITE":"AFETR","EPOCH":"2022-04-28T14:00:01.000224","RCS_SIZE":"LARGE","MEAN_ELEMENT_THEORY":"SGP4","LAUNCH_DATE":"2022-02-21","TLE_LINE2":"2 51751  53.2174 173.0286 0001099  59.7257 310.9144 15.67829005  3710","OBJECT_NAME":"STARLINK-3506","EPHEMERIS_TYPE":"0","TLE_LINE1":"1 51751U 22016AP  22118.58334491 -.00714878  00000-0 -69425-2 0  9996","OBJECT_TYPE":"PAYLOAD","MEAN_ANOMALY":"310.9144","COUNTRY_CODE":"US","PERIAPSIS":"364.376","TIME_SYSTEM":"UTC","FILE":"3420061"},{"MEAN_ANOMALY":"312.3097","OBJECT_TYPE":"PAYLOAD","COUNTRY_CODE":"US","FILE":"3420061","TIME_SYSTEM":"UTC","PERIAPSIS":"364.310","EPHEMERIS_TYPE":"0","TLE_LINE1":"1 51752U 22016AQ  22118.58334491 -.00715034  00000-0 -69391-2 0  9994","APOAPSIS":"365.823","MEAN_MOTION":"15.67846548","OBJECT_ID":"2022-016AQ","EPOCH":"2022-04-28T14:00:01.000224","DECAY_DATE":null,"SITE":"AFETR","RCS_SIZE":"LARGE","LAUNCH_DATE":"2022-02-21","MEAN_ELEMENT_THEORY":"SGP4","TLE_LINE2":"2 51752  53.2174 173.0378 0001122  61.0958 312.3097 15.67846548  3718","OBJECT_NAME":"STARLINK-3511","NORAD_CAT_ID":"51752","MEAN_MOTION_DOT":"-0.00715034","PERIOD":"91.846","SEMIMAJOR_AXIS":"6743.202","REV_AT_EPOCH":"371","INCLINATION":"53.2174","RA_OF_ASC_NODE":"173.0378","GP_ID":"202220442","ECCENTRICITY":"0.00011220","ELEMENT_SET_NO":"999","ARG_OF_PERICENTER":"61.0958","MEAN_MOTION_DDOT":"0.0000000000000","BSTAR":"-0.00693910000000","CLASSIFICATION_TYPE":"U","REF_FRAME":"TEME","CENTER_NAME":"EARTH"},{"TLE_LINE1":"1 51753U 22016AR  22118.58334491 -.00715007  00000-0 -69414-2 0  9991","EPHEMERIS_TYPE":"0","TIME_SYSTEM":"UTC","PERIAPSIS":"364.370","FILE":"3420061","COUNTRY_CODE":"US","MEAN_ANOMALY":"306.4273","OBJECT_TYPE":"PAYLOAD","CENTER_NAME":"EARTH","REF_FRAME":"TEME","CLASSIFICATION_TYPE":"U","BSTAR":"-0.00694140000000","MEAN_MOTION_DDOT":"0.0000000000000","ARG_OF_PERICENTER":"65.5956","ELEMENT_SET_NO":"999","ECCENTRICITY":"0.00010700","GP_ID":"202220363","REV_AT_EPOCH":"371","INCLINATION":"53.2174","RA_OF_ASC_NODE":"173.0331","SEMIMAJOR_AXIS":"6743.226","PERIOD":"91.846","MEAN_MOTION_DOT":"-0.00715007","NORAD_CAT_ID":"51753","OBJECT_NAME":"STARLINK-3507","TLE_LINE2":"2 51753  53.2174 173.0331 0001070  65.5956 306.4273 15.67837844  3716","MEAN_ELEMENT_THEORY":"SGP4","LAUNCH_DATE":"2022-02-21","RCS_SIZE":"LARGE","DECAY_DATE":null,"SITE":"AFETR","EPOCH":"2022-04-28T14:00:01.000224","APOAPSIS":"365.813","OBJECT_ID":"2022-016AR","MEAN_MOTION":"15.67837844"},{"FILE":"3420386","PERIAPSIS":"365.449","TIME_SYSTEM":"UTC","COUNTRY_CODE":"US","OBJECT_TYPE":"PAYLOAD","MEAN_ANOMALY":"265.1679","EPHEMERIS_TYPE":"0","TLE_LINE1":"1 51754U 22016AS  22118.83334491 -.00718648  00000-0 -70847-2 0  9996","RCS_SIZE":"LARGE","EPOCH":"2022-04-28T20:00:01.000224","DECAY_DATE":null,"SITE":"AFETR","APOAPSIS":"366.815","MEAN_MOTION":"15.67475076","OBJECT_ID":"2022-016AS","OBJECT_NAME":"STARLINK-3457","TLE_LINE2":"2 51754  53.2175 171.8125 0001013  81.3248 265.1679 15.67475076 11694","LAUNCH_DATE":"2022-02-21","MEAN_ELEMENT_THEORY":"SGP4","RA_OF_ASC_NODE":"171.8125","REV_AT_EPOCH":"1169","INCLINATION":"53.2175","PERIOD":"91.867","SEMIMAJOR_AXIS":"6744.267","NORAD_CAT_ID":"51754","MEAN_MOTION_DOT":"-0.00718648","CLASSIFICATION_TYPE":"U","CENTER_NAME":"EARTH","REF_FRAME":"TEME","MEAN_MOTION_DDOT":"0.0000000000000","BSTAR":"-0.00708470000000","ARG_OF_PERICENTER":"81.3248","GP_ID":"202228079","ECCENTRICITY":"0.00010130","ELEMENT_SET_NO":"999"},{"COUNTRY_CODE":"US","MEAN_ANOMALY":"263.1016","OBJECT_TYPE":"PAYLOAD","FILE":"3420386","PERIAPSIS":"365.460","TIME_SYSTEM":"UTC","EPHEMERIS_TYPE":"0","TLE_LINE1":"1 51755U 22016AT  22118.83334491 -.00718643  00000-0 -70859-2 0  9995","APOAPSIS":"366.829","OBJECT_ID":"2022-016AT","MEAN_MOTION":"15.67470739","RCS_SIZE":"LARGE","EPOCH":"2022-04-28T20:00:01.000224","SITE":"AFETR","DECAY_DATE":null,"LAUNCH_DATE":"2022-02-21","MEAN_ELEMENT_THEORY":"SGP4","OBJECT_NAME":"STARLINK-3460","TLE_LINE2":"2 51755  53.2175 171.8109 0001015  82.6960 263.1016 15.67470739 11698","PERIOD":"91.868","SEMIMAJOR_AXIS":"6744.279","NORAD_CAT_ID":"51755","MEAN_MOTION_DOT":"-0.00718643","RA_OF_ASC_NODE":"171.8109","REV_AT_EPOCH":"1169","INCLINATION":"53.2175","ARG_OF_PERICENTER":"82.6960","GP_ID":"202228083","ECCENTRICITY":"0.00010150","ELEMENT_SET_NO":"999","CLASSIFICATION_TYPE":"U","CENTER_NAME":"EARTH","REF_FRAME":"TEME","MEAN_MOTION_DDOT":"0.0000000000000","BSTAR":"-0.00708590000000"},{"MEAN_MOTION_DDOT":"0.0000000000000","BSTAR":"-0.00708600000000","CLASSIFICATION_TYPE":"U","REF_FRAME":"TEME","CENTER_NAME":"EARTH","GP_ID":"202228080","ELEMENT_SET_NO":"999","ECCENTRICITY":"0.00010730","ARG_OF_PERICENTER":"63.1151","RA_OF_ASC_NODE":"171.8391","INCLINATION":"53.2175","REV_AT_EPOCH":"1164","NORAD_CAT_ID":"51756","MEAN_MOTION_DOT":"-0.00718930","PERIOD":"91.867","SEMIMAJOR_AXIS":"6744.251","TLE_LINE2":"2 51756  53.2175 171.8391 0001073  63.1151 284.0711 15.67480597 11644","OBJECT_NAME":"STARLINK-3513","LAUNCH_DATE":"2022-02-21","MEAN_ELEMENT_THEORY":"SGP4","EPOCH":"2022-04-28T20:00:01.000224","DECAY_DATE":null,"SITE":"AFETR","RCS_SIZE":"LARGE","APOAPSIS":"366.840","OBJECT_ID":"2022-016AU","MEAN_MOTION":"15.67480597","TLE_LINE1":"1 51756U 22016AU  22118.83334491 -.00718930  00000-0 -70860-2 0  9997","EPHEMERIS_TYPE":"0","FILE":"3420386","PERIAPSIS":"365.392","TIME_SYSTEM":"UTC","MEAN_ANOMALY":"284.0711","OBJECT_TYPE":"PAYLOAD","COUNTRY_CODE":"US"},{"RCS_SIZE":"LARGE","EPOCH":"2022-04-28T20:00:01.000224","SITE":"AFETR","DECAY_DATE":null,"OBJECT_ID":"2022-016AV","APOAPSIS":"366.857","MEAN_MOTION":"15.67485004","OBJECT_NAME":"STARLINK-3459","TLE_LINE2":"2 51757  53.2175 171.8413 0001117  60.9266 286.9545 15.67485004 11690","LAUNCH_DATE":"2022-02-21","MEAN_ELEMENT_THEORY":"SGP4","INCLINATION":"53.2175","RA_OF_ASC_NODE":"171.8413","REV_AT_EPOCH":"1169","PERIOD":"91.867","SEMIMAJOR_AXIS":"6744.238","NORAD_CAT_ID":"51757","MEAN_MOTION_DOT":"-0.00719049","CLASSIFICATION_TYPE":"U","CENTER_NAME":"EARTH","REF_FRAME":"TEME","MEAN_MOTION_DDOT":"0.0000000000000","BSTAR":"-0.00708590000000","ARG_OF_PERICENTER":"60.9266","GP_ID":"202228109","ECCENTRICITY":"0.00011170","ELEMENT_SET_NO":"999","FILE":"3420379","PERIAPSIS":"365.350","TIME_SYSTEM":"UTC","COUNTRY_CODE":"US","OBJECT_TYPE":"PAYLOAD","MEAN_ANOMALY":"286.9545","EPHEMERIS_TYPE":"0","TLE_LINE1":"1 51757U 22016AV  22118.83334491 -.00719049  00000-0 -70859-2 0  9998"},{"OBJECT_ID":"2022-016AW","APOAPSIS":"366.845","MEAN_MOTION":"15.67489266","RCS_SIZE":"LARGE","EPOCH":"2022-04-28T20:00:01.000224","DECAY_DATE":null,"SITE":"AFETR","LAUNCH_DATE":"2022-02-21","MEAN_ELEMENT_THEORY":"SGP4","OBJECT_NAME":"STARLINK-3458","TLE_LINE2":"2 51758  53.2175 171.8429 0001118  61.8028 286.7733 15.67489266 11719","PERIOD":"91.867","SEMIMAJOR_AXIS":"6744.226","NORAD_CAT_ID":"51758","MEAN_MOTION_DOT":"-0.00718941","RA_OF_ASC_NODE":"171.8429","REV_AT_EPOCH":"1171","INCLINATION":"53.2175","ARG_OF_PERICENTER":"61.8028","GP_ID":"202228078","ECCENTRICITY":"0.00011180","ELEMENT_SET_NO":"999","CLASSIFICATION_TYPE":"U","CENTER_NAME":"EARTH","REF_FRAME":"TEME","MEAN_MOTION_DDOT":"0.0000000000000","BSTAR":"-0.00708350000000","COUNTRY_CODE":"US","MEAN_ANOMALY":"286.7733","OBJECT_TYPE":"PAYLOAD","FILE":"3420386","TIME_SYSTEM":"UTC","PERIAPSIS":"365.337","EPHEMERIS_TYPE":"0","TLE_LINE1":"1 51758U 22016AW  22118.83334491 -.00718941  00000-0 -70835-2 0  9993"}];
